{"type": "FeatureCollection", "features": [{"type": "Feature", "geometry": {"type": "MultiPolygon", "coordinates": [[[[-40.216004, -19.433511], [-40.217576, -19.434463], [-40.219298, -19.435056], [-40.222678, -19.436819], [-40.222016, -19.438318], [-40.222629, -19.440179], [-40.221602, -19.443538], [-40.219848, -19.44243], [-40.219699, -19.441556], [-40.218888, -19.441057], [-40.218027, -19.439449], [-40.216455, -19.438638], [-40.216058, -19.438466], [-40.215578, -19.438825], [-40.214949, -19.438934], [-40.214105, -19.438809], [-40.213476, -19.439636], [-40.213025, -19.440401], [-40.212347, -19.440729], [-40.211337, -19.440838], [-40.210625, -19.440807], [-40.209798, -19.441025], [-40.20907, -19.441104], [-40.208006, -19.440713], [-40.207857, -19.440292], [-40.207377, -19.440152], [-40.206914, -19.440167], [-40.206335, -19.440292], [-40.20602, -19.439933], [-40.204857, -19.440167], [-40.204576, -19.437686], [-40.204427, -19.435091], [-40.205503, -19.435107], [-40.206479, -19.435793], [-40.207456, -19.435403], [-40.208482, -19.435419], [-40.210336, -19.435622], [-40.210948, -19.43506], [-40.212686, -19.435325], [-40.214146, -19.435149], [-40.214527, -19.434619], [-40.214477, -19.433714], [-40.215139, -19.432496], [-40.216004, -19.433511]]]]}, "properties": {"id": "T01", "cultura": "cafe", "area_ha": 111.87}}, {"type": "Feature", "geometry": {"type": "MultiPolygon", "coordinates": [[[[-40.186739, -19.426253], [-40.182568, -19.425878], [-40.180417, -19.425473], [-40.179109, -19.425519], [-40.179142, -19.43234], [-40.17997, -19.433355], [-40.181691, -19.43273], [-40.182585, -19.431341], [-40.184157, -19.431013], [-40.186093, -19.430545], [-40.18712, -19.429406], [-40.187202, -19.42875], [-40.186822, -19.428516], [-40.187467, -19.427658], [-40.187335, -19.426706], [-40.186739, -19.426253]]]]}, "properties": {"id": "T02", "cultura": "coco", "area_ha": 53.45}}, {"type": "Feature", "geometry": {"type": "MultiPolygon", "coordinates": [[[[-40.170371, -19.41375], [-40.170139, -19.423147], [-40.166829, -19.422148], [-40.166001, -19.427205], [-40.164181, -19.426737], [-40.16236, -19.427829], [-40.161102, -19.424489], [-40.161433, -19.42221], [-40.159844, -19.421805], [-40.162691, -19.416966], [-40.164247, -19.412221], [-40.170371, -19.41375]]]]}, "properties": {"id": "T03", "cultura": "cafe", "area_ha": 117.57}}, {"type": "Feature", "geometry": {"type": "MultiPolygon", "coordinates": [[[[-40.262722, -19.44893], [-40.261795, -19.455921], [-40.260471, -19.456234], [-40.259412, -19.458606], [-40.256896, -19.459479], [-40.256036, -19.459479], [-40.256036, -19.457357], [-40.25491, -19.456046], [-40.251732, -19.459105], [-40.249349, -19.460978], [-40.249018, -19.463349], [-40.249482, -19.465284], [-40.247363, -19.465784], [-40.246502, -19.464535], [-40.242199, -19.46466], [-40.238889, -19.46516], [-40.235645, -19.464848], [-40.234851, -19.454611], [-40.237234, -19.451989], [-40.241339, -19.449554], [-40.244119, -19.44893], [-40.247032, -19.44943], [-40.249018, -19.447432], [-40.262722, -19.44893]]]]}, "properties": {"id": "T04", "cultura": "eucalipto", "area_ha": 392.76}}, {"type": "Feature", "geometry": {"type": "MultiPolygon", "coordinates": [[[[-40.181956, -19.442219], [-40.179771, -19.44094], [-40.177587, -19.439629], [-40.176031, -19.439847], [-40.174872, -19.43863], [-40.174177, -19.4376], [-40.171893, -19.436757], [-40.168649, -19.435165], [-40.169775, -19.433854], [-40.17229, -19.433386], [-40.175435, -19.434291], [-40.178546, -19.435821], [-40.18093, -19.437225], [-40.179937, -19.435134], [-40.183346, -19.433417], [-40.184438, -19.43426], [-40.184008, -19.435821], [-40.186524, -19.437319], [-40.18755, -19.438255], [-40.181956, -19.442219]]]]}, "properties": {"id": "T05", "cultura": "pasto", "area_ha": 92.67}}]}